[ {"name": "STARLINK-34903", "line1": "1 65372U 25190X   26111.90306018  .00003985  00000+0  14658-3 0  9999", "line2": "2 65372  53.1592 327.2845 0000623 128.7642 231.3415 15.30204381 36377"}, {"name": "STARLINK-34891", "line1": "1 65373U 25190Y   26111.87995875  .00015916  00000+0  54858-3 0  9994", "line2": "2 65373  53.1581 327.8492 0001412  82.9361 277.1800 15.30185253 35849"}, {"name": "STARLINK-34900", "line1": "1 65374U 25190Z   26111.97154552  .00019299  00000+0  66202-3 0  9999", "line2": "2 65374  53.1599 327.0052 0000871 100.5964 259.5135 15.30200853 35868"}, {"name": "STARLINK-34305", "line1": "1 65375U 25190AA  26112.03475199 -.00000623  00000+0 -89052-5 0  9994", "line2": "2 65375  53.1590 326.6840 0001287  82.1215 277.9932 15.30187968 36395"}, {"name": "STARLINK-34249", "line1": "1 65376U 25190AB  26111.93577798  .00032016  00000+0  10881-2 0  9991", "line2": "2 65376  53.1605 327.4895 0001071  80.2646 279.8475 15.30209073 36799"}, {"name": "STARLINK-34879", "line1": "1 65377U 25190AC  26111.89567795  .00015953  00000+0  54960-3 0  9991", "line2": "2 65377  53.1591 327.2391 0001195  69.1430 290.9699 15.30199401 36376"}, {"name": "STARLINK-34912", "line1": "1 65378U 25190AD  26112.01997395  .00015170  00000+0  52339-3 0  9999", "line2": "2 65378  53.1586 326.5932 0001064  62.1808 297.9301 15.30192224 36396"}, {"name": "STARLINK-34985", "line1": "1 65379U 25191A   26112.13680295  .00002666  00000+0  18887-3 0  9998", "line2": "2 65379  97.5939 344.2902 0002384  74.1438 286.0052 15.05652356 36800"}, {"name": "STARLINK-35051", "line1": "1 65380U 25191B   26112.23372917  .00000069  00000+0  89771-5 0  9997", "line2": "2 65380  97.5899 344.4715 0002375  76.7008 283.4484 15.05647187 36831"}, {"name": "STARLINK-35028", "line1": "1 65381U 25191C   26112.15065912  .00002812  00000+0  19896-3 0  9990", "line2": "2 65381  97.5917 344.4300 0002685  76.9070 283.2456 15.05654561 36817"}, {"name": "STARLINK-35032", "line1": "1 65382U 25191D   26111.65498297  .00005676  00000+0  39717-3 0  9996", "line2": "2 65382  97.5957 343.8570 0002596  68.2651 291.8852 15.05656197 36737"}, {"name": "STARLINK-35054", "line1": "1 65383U 25191E   26112.14510969  .00005299  00000+0  37110-3 0  9999", "line2": "2 65383  97.5932 344.2827 0002583  83.7095 276.4426 15.05654546 36801"}, {"name": "STARLINK-35012", "line1": "1 65384U 25191F   26112.12850253  .00006684  00000+0  46691-3 0  9994", "line2": "2 65384  97.5955 344.3031 0003607  69.1247 291.0366 15.05655547 36808"}, {"name": "STARLINK-35073", "line1": "1 65385U 25191G   26112.11188571  .00002119  00000+0  15098-3 0  9997", "line2": "2 65385  97.5955 344.3274 0002522  80.3261 279.8251 15.05652107 36800"}, {"name": "STARLINK-35066", "line1": "1 65386U 25191H   26112.09251227  .00000237  00000+0  20610-4 0  9990", "line2": "2 65386  97.5926 344.3536 0002555  74.4318 285.7191 15.05649346 36803"}, {"name": "STARLINK-34703", "line1": "1 65387U 25191J   26112.10634919  .00000601  00000+0  45862-4 0  9997", "line2": "2 65387  97.5898 344.3335 0002442  79.7451 280.4051 15.05651720 36806"}, {"name": "STARLINK-34957", "line1": "1 65388U 25191K   26112.08696763  .00000750  00000+0  56184-4 0  9994", "line2": "2 65388  97.5917 344.3611 0001773  88.9918 271.1512 15.05648258 36803"}, {"name": "STARLINK-34993", "line1": "1 65389U 25191L   26112.13128901  .00020164  00000+0  13977-2 0  9997", "line2": "2 65389  97.5944 344.2984 0001948  65.1637 294.9792 15.05649919 36803"}, {"name": "STARLINK-35083", "line1": "1 65390U 25191M   26112.14235770  .00007581  00000+0  52913-3 0  9995", "line2": "2 65390  97.5934 344.2881 0002946  86.9213 273.2351 15.05641456 36809"}, {"name": "STARLINK-34786", "line1": "1 65391U 25191N   26112.22819257  .00001777  00000+0  12728-3 0  9994", "line2": "2 65391  97.5910 344.4805 0002492  83.6395 276.5116 15.05651963 36824"}, {"name": "STARLINK-35082", "line1": "1 65392U 25191P   26112.21434804  .00001308  00000+0  94823-4 0  9992", "line2": "2 65392  97.5885 344.4982 0002674  81.3040 278.8490 15.05648371 36825"}, {"name": "STARLINK-35097", "line1": "1 65393U 25191Q   26112.11742221  .00004449  00000+0  31231-3 0  9999", "line2": "2 65393  97.5967 344.3190 0002200  83.1073 277.0404 15.05655970 35354"}, {"name": "STARLINK-35058", "line1": "1 65394U 25191R   26111.92358406  .00010276  00000+0  71501-3 0  9995", "line2": "2 65394  97.5992 344.1118 0003826  71.8998 288.2646 15.05663322 36775"}, {"name": "STARLINK-35094", "line1": "1 65395U 25191S   26112.05929534 -.00040831  00000+0 -28487-2 0  9993", "line2": "2 65395  97.5957 344.2390 0004185  74.8353 285.3337 15.05550763 36800"}, {"name": "STARLINK-34811", "line1": "1 65396U 25191T   26112.13956955 -.00000623  00000+0 -38960-4 0  9994", "line2": "2 65396  97.5957 344.2882 0002733  71.1746 288.9777 15.05653289 36804"}, {"name": "STARLINK-34940", "line1": "1 65397U 25191U   26112.10910423  .00007364  00000+0  51372-3 0  9990", "line2": "2 65397  97.5934 344.3308 0001807  77.1960 282.9469 15.05673034 36801"}, {"name": "STARLINK-34931", "line1": "1 65398U 25191V   26112.26696883  .00012381  00000+0  86060-3 0  9996", "line2": "2 65398  97.5958 344.4282 0001818  76.6298 283.5132 15.05657164 36822"}, {"name": "STARLINK-34836", "line1": "1 65399U 25191W   26111.91529764  .00007491  00000+0  52276-3 0  9999", "line2": "2 65399  97.5958 344.1268 0003064  69.6289 290.5267 15.05651043 36772"}, {"name": "STARLINK-34876", "line1": "1 65400U 25191X   26112.08973556  .00000543  00000+0  41817-4 0  9994", "line2": "2 65400  97.5908 344.3572 0001837  84.7581 275.3856 15.05650788 36803"}, {"name": "STARLINK-34909", "line1": "1 65401U 25191Y   26112.10357973  .00001049  00000+0  76895-4 0  9993", "line2": "2 65401  97.5900 344.3372 0002677  80.3669 279.7860 15.05653366 36815"}, {"name": "STARLINK-34848", "line1": "1 65402U 25191Z   26112.23095988  .00000709  00000+0  53305-4 0  9996", "line2": "2 65402  97.5888 344.4763 0002432  82.0713 278.0789 15.05648534 36828"}, {"name": "STARLINK-35031", "line1": "1 65404U 25192A   26112.17030976  .00014463  00000+0  49907-3 0  9992", "line2": "2 65404  53.1605  40.8879 0003053  67.4903 292.6421 15.30226722 35898"}, {"name": "STARLINK-34830", "line1": "1 65405U 25192B   26112.03966243  .00022714  00000+0  77622-3 0  9996", "line2": "2 65405  53.1626  30.8314 0001674 100.9082 259.2107 15.30219627 36036"}, {"name": "STARLINK-35036", "line1": "1 65406U 25192C   26112.06182085  .00015979  00000+0  55060-3 0  9991", "line2": "2 65406  53.1616  30.9688 0001119  65.5076 294.6041 15.30192079 36024"}, {"name": "STARLINK-35035", "line1": "1 65407U 25192D   26112.25459849  .00024729  00000+0  84523-3 0  9997", "line2": "2 65407  53.1587  30.0428 0001147  90.0369 270.0763 15.30162632 36058"}, {"name": "STARLINK-35008", "line1": "1 65408U 25192E   26112.25143112  .00004581  00000+0  16672-3 0  9995", "line2": "2 65408  53.1601  30.0191 0001027  67.2710 292.8399 15.30195148 36051"}, {"name": "STARLINK-35022", "line1": "1 65409U 25192F   26112.04282285  .00022530  00000+0  77007-3 0  9991", "line2": "2 65409  53.1605  30.8500 0000372 280.3489  79.7469 15.30217075 36022"}, {"name": "STARLINK-35024", "line1": "1 65410U 25192G   26112.17661390  .00022440  00000+0  76707-3 0  9991", "line2": "2 65410  53.1609  30.2638 0001379  83.1442 276.9716 15.30216569 36045"}, {"name": "STARLINK-34983", "line1": "1 65411U 25192H   26112.03649161  .00021502  00000+0  73616-3 0  9993", "line2": "2 65411  53.1607  30.8091 0002282  93.6018 266.5244 15.30192320 36029"}, {"name": "STARLINK-34992", "line1": "1 65412U 25192J   26112.16395089  .00014327  00000+0  49464-3 0  9996", "line2": "2 65412  53.1619  30.1820 0000778 119.5759 240.5319 15.30217407 36023"}, {"name": "STARLINK-35003", "line1": "1 65413U 25192K   26112.28098243  .00017416  00000+0  59890-3 0  9998", "line2": "2 65413  53.1594  30.1976 0001250  98.2236 261.8907 15.30192655 36056"}, {"name": "STARLINK-34238", "line1": "1 65415U 25192M   26112.21038618  .00021402  00000+0  73272-3 0  9993", "line2": "2 65415  53.1609  30.4685 0000750 143.9004 216.2047 15.30196912 36048"}, {"name": "STARLINK-34855", "line1": "1 65416U 25192N   26112.15668485  .00020510  00000+0  70283-3 0  9996", "line2": "2 65416  53.1606  30.8431 0001001  88.6563 271.4553 15.30193782 36030"}, {"name": "STARLINK-34255", "line1": "1 65417U 25192P   26112.20405668  .00002122  00000+0  83774-4 0  9994", "line2": "2 65417  53.1599  30.4244 0001172  92.1728 267.9408 15.30192429 36049"}, {"name": "STARLINK-34997", "line1": "1 65418U 25192Q   26112.18717517  .00028237  00000+0  96214-3 0  9998", "line2": "2 65418  53.1616  30.3285 0000991  61.0355 299.0745 15.30191390 36049"}, {"name": "STARLINK-35085", "line1": "1 65419U 25192R   26112.07341280  .00021796  00000+0  76449-3 0  9998", "line2": "2 65419  53.1640  30.3311 0003002  84.8324 275.3019 15.29395031 36038"}, {"name": "STARLINK-35138", "line1": "1 65420U 25192S   26112.17451320  .00020616  00000+0  70680-3 0  9999", "line2": "2 65420  53.1598  30.2554 0000983  86.0057 274.1056 15.30175237 36047"}, {"name": "STARLINK-35146", "line1": "1 65421U 25192T   26112.17240095  .00027442  00000+0  93594-3 0  9998", "line2": "2 65421  53.1612  30.2339 0001205  99.7986 260.3151 15.30175392 36030"}, {"name": "STARLINK-35074", "line1": "1 65422U 25192U   26112.19033761  .00001999  00000+0  79621-4 0  9996", "line2": "2 65422  53.1585  30.3415 0001103  88.0020 272.1107 15.30190587 36049"}, {"name": "STARLINK-34837", "line1": "1 65423U 25192V   26112.17767739  .00029514  00000+0  10053-2 0  9999", "line2": "2 65423  53.1605  30.2671 0001269  93.1294 266.9852 15.30178621 36042"}, {"name": "STARLINK-34670", "line1": "1 65424U 25192W   26112.16923130  .00020654  00000+0  70710-3 0  9991", "line2": "2 65424  53.1616  30.2142 0000223  40.5720 319.5297 15.30219005 36047"}, {"name": "STARLINK-35095", "line1": "1 65425U 25192X   26112.15562313  .00007432  00000+0  26277-3 0  9991", "line2": "2 65425  53.1619  30.8348 0000599 105.3171 254.7896 15.30201020 36033"}]